X;Y;NUMERO_REGISTRO;NOMBRE;DIRECCION;PISO;NUMERO_EXPEDIENTE;CAPACIDAD;CLASE;ESTADO;DISPOSICION;FECHA_DISP_INSCRIPCION;NUMERO_DIPS;FECHA_DISP_RE_INSCRIPCION;NUMERO_DISP_DE_RECHAZO;FECHA_DISPOSICION_DE_RECHAZO;NUMERO_DISPOSICION_DE_RECALCULO_CAPACIDAD;FECHA_DISPOSICION_DE_CAPACIDAD;FECHA_DE_ENTREGA_NUEVA_REVALIDA;VENCIMIENTO;ESTADO_OBESERVACIONES;NOTIFICADO;FECHA_ENVIO;FECHA_DE_NOTIFICACION
-58.36383620000000;-34.601494299999999;95;ACQUA LOUNGE;MANSO JUANA 305;PLANTA BAJA;19740/07;214;CC;INSCRIPCION VENCIDA;101;06/12/2007;25;06/03/2014; ; ;101;06/12/2007;11/06/2015;20/07/2015;INSCRIPCION VENCIDA; ; ; 
-58,3923923474375;-34.588427813886099;155;AFRIKA;JUNIN 1787; ;16728237/17;250;C;INSCRIPCION 2017;79;17/08/2017; ; ; ; ;79;17/08/2017;22/08/2017;03/10/2017; ; ; ; 
-58.42355760000000;-34.598689800000002;62;AMERIKA;GASCON 1036; ;10601/05;2450;C;RENOVADO 2017;84;14/07/2005;84;06/09/2017; ; ;158;20/12/2012;09/08/2017;10/11/2017; ; ; ; 
-58.46987260000000;-34.629936800000003;37;AMNESIA;NAZCA AV. 55; ;10617/05;778;CC;RENOVADO 2016;120;20/10/2010;100;20/10/2016; ; ;91;09/10/2007;27/10/2016;27/01/2017; ; ; ; 
-58.39811490000000;-34.601095999999998;41;ANGEL´S DISCO;VIAMONTE 2168; ;11627/05;425;C;INSCRIPCION VENCIDA;44;22/03/2005;46;31/03/2016; ; ;92;29/07/2005;18/01/2017;21/04/2017;INSCRIPCION VENCIDA; ; ; 
-58.47166130000000;-34.631147499999997;70;ASBURY ROCK;RIVADAVIA AV. 7523; ;36839/05;216;CC;RENOVADO 2017;12;21/02/2006;3;20/01/2017; ; ;12;21/02/2006;21/12/2016;15/03/2017; ; ; ; 
-58.36403709999999;-34.605938500000001;22;ASIA DE CUBA;COSSETTINI, OLGA 751; ;10642/05;622;C;RENOVADO 2017;25;10/03/2005;16;22/02/2017; ; ;57;23/04/2007;28/09/2017;30/12/2017; ; ; ; 
-58.41223389999999;-34.604181199999999;15;AZUCAR ABASTO;CORRIENTES AV. 3328; ;12571/05;622;C;BAJA INSC: DISP. 02/14 CONJUNTA;16;03/03/2005;116;25/06/2013; ; ;88;23/06/2006; ; ; ; ; ; 
-58.45630239999999;-34.562676600000003;30;AZUCAR BELGRANO;CABILDO AV. 2040; ;10832/05;521;C;BAJA INSC: DISP. CONJUNTA NRO 47/2010;33;16/03/2005;114;18/12/2009; ; ;90;14/09/2007; ; ; ; ; ; 
-58.42577399999999;-34.596613599999998;145;AZUCAR PALERMO;CORDOBA AV. 4175; ;11847816/14;350;C;RENOVADO 2017;63;19/06/2015;72;01/08/2017; ; ;63;19/06/2015;10/08/2017;10/11/2017; ; ; ; 
-58.37174240000000;-34.601951900000003;5;BAHREIN;LAVALLE 343; ;11114/05;880;C;RENOVADO 2017;6;01/03/2005;10;08/02/2017; ; ;95;06/11/2007;27/09/2017;30/12/2017; ; ; ; 
-58.50380919999999;-34.564252199999999;6;BELLA ROMA;YRURTIA, ROGELIO 6020; ;10615/05;900;C;SUSPENDIDO DISP. 108/09 CONJUNTA;7;02/03/2005;73;25/06/2009; ; ;86;23/06/2006; ; ; ; ; ; 
-58.47016440000000;-34.630958900000003;29;BELLAKEO NIGHT;RIVADAVIA AV. 7428; ;10581/05;1260;C;RENOVADO 2017;32;15/03/2005;58;09/06/2017; ; ;35;17/03/2006;12/05/2016;15/06/2016; ; ; ; 
-58.43542500000000;-34.5860135;133;BK;JUSTO, JUAN B. AV. 1574; ;407626/12;961;C;RENOVADO 2017;33;09/03/2012;45;23/03/2017; ; ;49;27/03/2014;28/09/2017;30/12/2017; ; ; ; 
-58.38934669999999;-34.5877762;93;BLACK;AYACUCHO 1981; ;28278/07;210;CC;BAJA INSCRIPCION DISP NRO 64/2013;88;31/08/2007;115;27/08/2012; ; ;88;31/08/2007; ; ; ; ; ; 
-58.4364318578149;-34.5855565142495;149;BLACK CLUB;GORRITI 5516; ;EE21483457/;205;CC;RENOVADO 2017;92;23/10/2016;87;22/09/2017; ; ;92;23/10/2016; ; ; ; ; ; 
-58.4401674;-34.586044700000002;104;BLOW;VEGA, NICETO, CNEL. AV. 5699; ;1965/09;333;CC;RENOVADO 2016;47;01/04/2009;117;23/12/2016; ; ;47;01/04/2009;23/08/2017;21/11/2017; ; ; ; 
-58.37467379999999;-34.614192500000001;127;BOUTIQUE;PERU 535; ;1241520/11;1950;C;RENOVADO 2017;93;18/08/2011;78;17/08/2017; ; ;93;18/08/2011;02/06/2017;03/09/2017; ; ; ; 
-58,43137109022553;-34,54519488754026;154;BRANDY;OBLIGADO RAFAEL, AV.COSTANERA 6920; ;15814267/17;394;C;INSCRIPCION 2017;70;21/07/2017; ; ; ; ;70;21/07/2017;21/07/2017;22/09/2017; ; ; ; 
-58.3818932;-34.629062300000001;36;BRONCO;O'BRIEN 1160; ;10827/05;1646;C;INSCRIPCION VENCIDA;39;18/03/2005;24;16/03/2007;001/2010; ;147;21/10/2005; ; ; ; ; ; 
-58.43001730000000;-34.588475500000001;79;BRUJAS;BORGES, JORGE LUIS 1640; ;27022/05;264;C;RENOVADO 2017;94;17/07/2006;76;11/08/2017; ; ;108;13/06/2013;02/08/2017;30/09/2017; ; ; ; 
-58.39899799999999;-34.570042299999997;38;CAIX;OBLIGADO RAFAEL, AV.COSTANERA Y SALGUERO, JERONIMO; ;10607/05;1764;C;RENOVADO 2017;41;18/03/2005;25;07/03/2017; ; ;134;28/09/2005;22/08/2017;15/11/2017; ; ; ; 
-58.39374339999999;-34.605027200000002;1;CASTELBAMBA;RIOBAMBA 345; ;10560/05;428;C;RENOVADO 2017;1;24/02/2005;20;24/02/2017; ; ;158;12/12/2005;13/09/2017;13/10/2017; ; ; ; 
-58.37990039999999;-34.597323899999999;58;CATTOS;SUIPACHA 930; ;20218/05;100;CC;INSCRIPCION VENCIDA;68;08/06/2005;82;24/06/2014; ; ;93;04/08/2005;24/10/2014;27/01/2015;INSCRIPCION VENCIDA; ; ; 
-58.37976729999999;-34.609509299999999;107;CIRCUS;YRIGOYEN, HIPOLITO 947; ;32798/09;400;C;RENOVADO 2017;70;19/06/2009;73;01/08/2017; ; ;70;19/06/2009;06/09/2017;03/12/2017; ; ; ; 
-58.50193990000000;-34.586032099999997;8;CITY HALL;MOSCONI GENERAL AV. 2885; ;10571/05;1434;C;RENOVADO 2017;9;03/03/2005;32;10/03/2017; ; ;77;27/06/2005;16/08/2017;17/11/2017; ; ; ; 
-58.39458820000000;-34.5890761;12;CLOCHE;URIBURU JOSE E., PRES. 1721; ;10593/05;588;C;RENOVADO 2017;13;03/03/2005;26;07/03/2017; ; ;78;04/07/2005;23/08/2017;17/11/2017; ; ; ; 
-58.44778240000000;-34.547022900000002;55;CLUB 74;FIGUEROA ALCORTA, PRES. AV. 7474; ;10836/05;180;B;INSCRIPCION VENCIDA;65;18/05/2005;77;09/06/2014; ; ;76;01/06/2006;18/05/2015;11/08/2015;INSCRIPCION VENCIDA; ; ; 
-58.37586759999999;-34.619138900000003;102;CLUB 947;CHACABUCO 947; ;36345/08;1702;ART 1;RENOVADO 2016;103;17/11/2008;111;24/11/2016; ; ;25;04/03/2011;09/08/2017;10/11/2017; ; ; ; 
-58.41628680000000;-34.586512999999997;43;CLUB ARAOZ;ARAOZ 2422; ;10824/05;1030;C;RENOVADO 2017;46;23/03/2005;12;15/02/2017; ; ;73;17/06/2005;07/09/2017;07/12/2017; ; ; ; 
-58.38844209999999;-34.589622400000003;7;CLUB SHAMPOO;QUINTANA, MANUEL, PRES. 362; ;10600/05;220;C;RENOVADO 2017;8;02/03/2005;22;03/03/2017; ; ;88;27/07/2005;02/08/2017;17/08/2017; ; ; ; 
-58.37893379999999;-34.608309200000001;90;COCOLICHE;RIVADAVIA AV. 878; ;21782/07;268;C;RENOVADO 2016;62;11/05/2007;104;21/10/2016; ; ;62;11/05/2007;06/09/2017;03/12/2017; ; ; ; 
-58.3919724;-34.596110000000003;84;CONTRAMANO;RODRIGUEZ PEÑA 1082;PLANTA BAJA;26278/06;335;CC;RENOVADO 2016;115;04/12/2015;114;07/12/2016; ; ;56;23/04/2007;21/07/2017;21/10/2017; ; ; ; 
-58.42280980000000;-34.5715334;72;CROBAR;DEL LIBERTADOR AV. 3883; ;62123/05;2258;C;RENOVADO 2017;57;30/03/2006;71;27/07/2017; ; ;89;09/10/2008;12/09/2017;03/12/2017; ; ; ; 
-58.4652551;-34.552353799999999;121;DISCO SIX;CABILDO AV. 3241; ;23050/11;900;C;RENOVADO 2017;1;10/01/2011;1;10/01/2017; ; ;1;10/01/2011;05/05/2017;03/08/2017; ; ; ; 
-58.47345589999999;-34.541745499999998;53;DOME;CABILDO AV. 4665; ;14497/05;1297;C;RENOVADO 2017;57;04/05/2005;62;19/06/2017; ; ;122;18/08/2005;22/09/2017;03/11/2017; ; ; ; 
-58.36330679999999;-34.622963499999997;76;DORSIA;MOREAU DE JUSTO, ALICIA AV. 2092; ;12648/06;679;C;RENOVADO 2017;65;21/04/2006;80;25/08/2017; ; ;83;18/06/2010;08/08/2017;10/11/2017; ; ; ; 
-58.47612039999999;-34.632300299999997;142;ECLIPTICO;RIVADAVIA AV. 7927; ;1327221/13;743;CC;RENOVADO 2017;75;23/05/2014;55;18/05/2017; ; ;75;23/05/2014;20/09/2017;15/12/2017; ; ; ; 
-58.41172300000000;-34.603834900000003;46;EL FOGON;AGUERO 512; ;13661/05;274;CC;BAJA INSC: DISP. NRO 94/12;49;23/03/2005;46;23/03/2012; ; ;55;23/03/2006; ; ; ; ; ; 
-58.4149393;-34.604022200000003;52;EL PICAFLOR;CORRIENTES AV. 3530; ;10580/05;662;C;RENOVADO 2017;56;04/05/2005;68;19/07/2017;69;04/05/2006;84;10/08/2007;27/07/2017;27/10/2017; ; ; ; 
-58.37767920000000;-34.604693099999999;61;EL TEATRITO;SARMIENTO 777; ;24459/05;538;C;BAJA INSC: DISP. CONJUNTA 92/2010;74;17/06/2005;105;19/11/2009; ; ;127;17/11/2006; ; ; ; ; ; 
-58.43614639999999;-34.586122799999998;73;ESPERANTO;JUSTO, JUAN B. AV. 1625; ;86918/05;572;CC;INSCRIPCION VENCIDA;59;03/04/2006;50;01/04/2016; ; ;8;22/01/2010;23/03/2016;28/06/2016;INSCRIPCION VENCIDA; ; ; 
-58.47023759999999;-34.630760899999999;19;EVELYN;RIVADAVIA AV. 7425; ;10578/05;452;CC;RENOVADO 2017;22;10/03/2005;30;10/03/2017; ; ;135;29/09/2005;15/09/2017;15/12/2017; ; ; ; 
-58.41534750000000;-34.610723999999998;48;FANTASTICO;RIVADAVIA AV. 3469; ;10660/05;1270;C;RENOVADO 2017;51;01/04/2005;21;24/02/2017;10;14/02/2006;160;22/12/2005;26/09/2017;22/10/2017; ; ; ; 
-58.44302239999999;-34.581492400000002;135;FRIDA;DORREGO 1735; ;2127478/12;187;CC;RENOVADO 2017;131;18/10/2012;67;19/07/2017; ; ;131;18/10/2012;29/09/2017;28/12/2017; ; ; ; 
-58.37070779999999;-34.614905800000003;138;FRODO´S;BALCARCE 605; ;2296777/12;425;C;RENOVADO 2017;1;02/01/2013;2;13/01/2017; ; ;1;02/01/2013;04/05/2017;03/08/2017; ; ; ; 
-58.40954359999999;-34.597006100000002;23;GLAM;CABRERA, JOSE A. 3046; ;10634/05;489;CC;RENOVADO 2017;26;11/03/2005;60;15/06/2017; ; ;60;10/05/2007;27/09/2017;17/11/2017; ; ; ; 
-58.3785022;-34.596003899999999;2;GOLDEN;ESMERALDA 1040; ;10561/05;408;CC;SUSPENDIDO DISFC-2016-77-DGFYC;3;24/02/2005;45;23/03/2016; ; ;98;08/08/2005;05/04/2016;27/05/2016;SUSPENDIDO; ; ; 
-58.4351293;-34.558356799999999;141;GOLF DE PALERMO;TORNQUIST, ERNESTO AV. 6385; ;EE10653536/;950;C;RENOVADO 2017;147;10/09/2013;86;21/09/2017; ; ;147;10/09/2013;26/09/2017;03/12/2017; ; ; ; 
-58.37604329999999;-34.598837199999998;17;GONG;CORDOBA AV. 634; ;10577/05;100;C;RENOVADO 2017;20;10/03/2005;44;23/03/2017; ; ;51;23/03/2006;26/07/2017;27/10/2017; ; ; ; 
-58.3729449;-34.597627699999997;64;GREAT CITY;RECONQUISTA 878; ;14498/05;208;CC;SUSPENDIDO;87;22/07/2005;84;14/08/2015; ; ;5;10/01/2006;16/07/2015;13/10/2015;SUSPENDIDO; ; ; 
-58.42323869999999;-34.579653299999997;117;GROOVE;SANTA FE AV. 4389; ;147846/10;1685;C;RENOVADO 2017;51;31/03/2010;46;31/03/2017; ; ;51;31/03/2010;07/08/2017;07/11/2017; ; ; ; 
-58.37852149999999;-34.6094188;115;HIPOLITO CLUB;YRIGOYEN, HIPOLITO 851; ;18225/10;958;C;BAJA PROVISORIA;4;15/01/2010;126;28/11/2014; ; ;4;15/01/2010;17/10/2016;07/11/2016; ; ; ; 
-58.43573789999999;-34.584528900000002;108;HONDURAS HOLLYWOOD;HONDURAS 5535; ;48909/09;356;CC;BAJA DE INSC: DISP. NRO 70/14;83;14/08/2009;175;15/11/2013; ; ;83;14/08/2009; ; ; ; ; ; 
-58.43957900000000;-34.586455000000001;59;INK;VEGA, NICETO, CNEL. AV. 5635; ;20819/05;409;CC;RENOVADO 2017;69;08/06/2005;75;11/08/2017; ; ;79;09/06/2006;25/07/2017;21/08/2017; ; ; ; 
-58.43615069999999;-34.586674600000002;105;INPUT;JUSTO, JUAN B. AV. 1658; ;23794/09;742;C;RENOVADO 2017;53;24/04/2009;14;20/02/2017; ; ;103;20/08/2010;27/06/2017;28/09/2017; ; ; ; 
-58.47143549999999;-34.631308300000001;9;IVANOFF;RIVADAVIA AV. 7518; ;11153/05;323;CC;RENOVADO 2017;10;03/03/2005;33;10/03/2017; ; ;127;13/09/2005;15/09/2017;15/12/2017; ; ; ; 
-58.43806039999999;-34.587701699999997;143;JAGER;VEGA, NICETO, CNEL. AV. 5422; ;14551044/14;950;C;RENOVADO 2016;107;16/10/2014;98;14/10/2016; ; ;107;16/10/2014;07/09/2017;06/12/2017; ; ; ; 
-58.40942179999999;-34.598173899999999;106;JANNOY;CORDOBA AV. 2988; ;23791/09;448;C;RENOVADO 2017;54;30/04/2009;51;25/04/2017; ; ;54;30/04/2009;22/08/2017;17/11/2017; ; ; ; 
-58.41794819999999;-34.554511499999997;92;JET;OBLIGADO RAFAEL, AV.COSTANERA 4801; ;83133/05;688;C;BAJA INSC: DISP. NRO 88/16;81;09/08/2007;83;11/08/2016; ; ;109;19/12/2008; ; ; ; ; ; 
-58.41794819999999;-34.554511499999997;150;JET;OBLIGADO RAFAEL, AV.COSTANERA 4801; ;83133/05;688;C;INSCRIPCION 2016;96;07/10/2016; ; ; ; ;96;07/10/2016;26/09/2017;22/12/2017; ; ; ; 
-58.43332600000000;-34.586431900000001;88;KIKA;HONDURAS 5339; ;44,991/06;1100;C;RENOVADO 2017;35;16/03/2007;39;17/03/2017; ; ;35;16/03/2007;26/09/2017;30/12/2017; ; ; ; 
-58.42997600000000;-34.576950099999998;85;KIMIA;SANTA FE AV. 4999; ;81034/06;958;C;INSCRIPCION VENCIDA;3;14/02/2007;79;07/08/2009; ; ;77;13/07/2007; ; ; ; ; ; 
-58.39857090000000;-34.595867300000002;144;KUMA CLUB;URIBURU JOSE E., PRES. 1073; ;7327422/13;508;C;RENOVADO 2016;130;05/12/2014;115;07/12/2016; ; ;130;05/12/2014;08/06/2017;17/08/2017; ; ; ; 
-58.37981839999999;-34.598451500000003;113;LA CAPILLA;SUIPACHA 842; ;1445687/09;220;CC;BAJA PREVENTIVA POR DISFC NRO 107/16;113;18/12/2009;116;17/12/2015; ; ;113;18/12/2009;27/10/2016;27/01/2017;SUSPENDIDO; ; ; 
-58.461551;-34.5782156;78;LA CITY;ALVAREZ THOMAS AV. 1391; ;31391/06;940;C;RENOVADO 2016;85;23/06/2006;105;21/10/2016; ; ;85;23/06/2006;30/08/2017;28/10/2017; ; ; ; 
-58.41029660000000;-34.558371000000001;45;LA DIOSA-VIDU;OBLIGADO RAFAEL, AV.COSTANERA 3731; ;10604/05;1558;C;BAJA INSCRIPCION DISFC-2013-127-DGFYC;48;23/03/2005;123;17/09/2012; ; ;107;29/09/2011; ; ; ; ; ; 
-58.39015030000000;-34.605532699999998;4;LA FRANCE;SARMIENTO 1656; ;11117/05;1372;CC;RENOVADO 2017;5;01/03/2005;11;15/02/2017; ; ;136;29/09/2005;12/07/2017;13/10/2017; ; ; ; 
-58.36747110000000;-34.600006;77;LA MADELEINE;MOREAU DE JUSTO, ALICIA AV. 102; ;80621/05;205;CC;INSCRIPCION VENCIDA;75;01/06/2006;82;12/06/2012; ; ;75;01/06/2006; ; ; ; ; ; 
-58.37061940000000;-34.612741100000001;89;LA VENTANA;BALCARCE 431; ;89485/06;449;CC;BAJA INSC: DISP. NRO 113/12;59;10/05/2007;75;28/05/2012; ; ;59;10/05/2007; ; ; ; ; ; 
-58.43846839999999;-34.587422199999999;137;LARC;VEGA, NICETO, CNEL. AV. 5452; ;2382483/12;980;C;RENOVADO 2016;144;16/11/2012;109;17/11/2016; ; ;144;16/11/2012;07/09/2017;06/12/2017; ; ; ; 
-58.40896390000000;-34.609612900000002;34;LATINO 11;ECUADOR 60; ;10594/05;1540;C;RENOVADO 2017;37;18/03/2005;43;23/03/2017; ; ;34;17/03/2006;21/09/2017;22/12/2017; ; ; ; 
-58.39371750000000;-34.609367300000002;68;LE CLICK;RIVADAVIA AV. 1910; ;50478/05;990;CC;RENOVADO 2017;159;14/12/2005;8;02/02/2017; ; ;159;14/12/2005;20/04/2017;13/07/2017; ; ; ; 
-58.50174009999999;-34.594971200000003;39;LE PRIVE;SAN MARTIN AV. 6101; ;10583/05;68;C;INSCRIPCION VENCIDA;42;21/03/2005;44;23/03/2007; ; ;52;23/03/2006; ; ; ; ; ; 
-58.41535749999999;-34.5854383;103;LIQUID;SANTA FE AV. 3651; ;72590/08;576;C;RENOVADO 2017;3;11/02/2009;5;26/01/2017; ; ;71;18/05/2012;06/09/2017;07/12/2017; ; ; ; 
-58.39130370000000;-34.621506099999998;83;LO DE CELIA;HUMBERTO 1° 1783;1ER PISO;9853/06;150;CC;RENOVADO 2016;123;02/11/2006;106;31/10/2016; ; ;123;02/11/2006;14/06/2017;20/09/2017; ; ; ; 
-58.393625;-34.588921599999999;91;LOCOS X EL FUTBOL;LOPEZ, VICENTE 2056; ;11045/07;300;CC;BAJA INSC: DISP. NRO 003/2010;75;02/07/2007;72;18/07/2008; ; ;75;02/07/2007; ; ; ; ; ; 
-58.49734519999999;-34.596988899999999;119;LOOP;BEIRO, FRANCISCO AV. 3128; ;1527712/10;247;CC;INSCRIPCION VENCIDA;150;28/12/2010;66;24/05/2016; ; ;150;28/12/2010;23/06/2016;10/08/2016;INSCRIPCION VENCIDA; ; ; 
-58.43630499999999;-34.553095999999996;151;LOW;SUCRE, ANTONIO JOSE DE, MCAL. 646; ;21227052/16;479;C;INSCRIPCION 2016;99;20/10/2016; ; ; ; ;99;20/10/2016;16/05/2017;03/06/2017; ; ; ; 
-58.37981950000000;-34.609023999999998;140;LP;DE MAYO AV. 948; ;3142359/13;200;C;RENOVADO 2017;145;28/08/2013;77;17/08/2017; ; ;145;28/08/2013;06/09/2017;03/12/2017; ; ; ; 
-58.39509309999999;-34.587533000000001;66;MADAHOS;AZCUENAGA 1902; ;14781/05;396;C;BAJA INSCRIPCION DISP. NRO 65/2013;128;15/09/2005;125;28/09/2012; ; ;128;15/09/2005; ; ; ; ; ; 
-58.51800130000000;-34.639002400000003;74;MAGICO;RIVADAVIA AV. 10925; ;61559/05;1320;C;RENOVADO 2017;60;04/04/2006;48;07/04/2017; ; ;58;23/04/2007;04/08/2017;11/10/2017; ; ; ; 
-58.36645349999999;-34.609614399999998;111;MAGNOLIA;MOREAU DE JUSTO, ALICIA AV. 1007; ;1082617/09;100;CC;SUSPENDIDO;95;23/10/2009;108;30/09/2011; ; ;95;23/10/2009;23/04/2014;20/07/2014; ; ; ; 
-58.46759910000000;-34.632990599999999;98;MAIS- UM;ALBERDI, JUAN BAUTISTA AV. 2829; ;66474/07;504;C;RENOVADO 2017;86;04/09/2008;50;11/04/2017; ; ;86;04/09/2008;01/08/2017;27/10/2017; ; ; ; 
-58.3911759;-34.605603000000002;10;MALUCO BELEZA;SARMIENTO 1728; ;11304/05;1076;C;RENOVADO 2017;11;03/03/2005;15;20/02/2017; ; ;92;11/07/2006;13/07/2017;13/10/2017; ; ; ; 
-58.40193680000000;-34.5679187;44;MANDARINE;OBLIGADO RAFAEL, AV.COSTANERA Y SARMIENTO AV.; ;10611/05;1613;C;RENOVADO 2017;47;23/03/2005;19;24/02/2017; ; ;38;23/03/2009;01/09/2017;24/11/2017; ; ; ; 
-58.38273579999999;-34.628163100000002;69;MBURUKUJA;SALTA 1748; ;61556/05;1140;CLUB ART 1;RENOVADO 2017;7;13/01/2006;7;02/02/2017; ; ;7;13/01/2006;14/07/2017;20/09/2017; ; ; ; 
-58.37073310000000;-34.614363500000003;118;MOD;BALCARCE 563; ;1130684/10;586;C;RENOVADO 2016;123;22/10/2010;101;20/10/2016; ; ;123;22/10/2010;08/08/2017;03/11/2017; ; ; ; 
-58.39383970000000;-34.582762899999999;114;MODENA DESIGN;FIGUEROA ALCORTA, PRES. AV. 2270; ; 48.226/09.;581;C;INSCRIPCION VENCIDA;116;30/12/2009;1;06/01/2014; ; ;116;30/12/2009; ; ; ; ; ; 
-58.3705292;-34.6155689;14;MOLIERE;BALCARCE 682; ;10598/05;531;CC;RENOVADO 2017;19;09/03/2005;40;21/03/2017; ; ;69;20/07/2017;11/08/2017;03/11/2017; ; ; ; 
-58.3926242;-34.615715299999998;56;MONTECARLO;MEXICO 1863; ;10673/05;460;C;RENOVADO 2017;66;08/06/2005;61;16/06/2017; ; ;6;10/01/2006;23/03/2017;20/06/2017; ; ; ; 
-58.46728110000000;-34.6299815;100;MORENA;RIVADAVIA AV. 7217; ;54743/08;922;C;BAJA DE INSCRIPCION;95;05/11/2008;174;15/11/2013; ; ;95;05/11/2008; ; ; ; ; ; 
-58.37812389999999;-34.601528600000002;75;MUNDO LATINO;ESMERALDA 565;PLANTA BAJA;10631/05;300;CC;RENOVADO 2017;62;12/04/2006;49;11/04/2017; ; ;102;12/11/2009;26/07/2017;30/08/2017; ; ; ; 
-58.37467379999999;-34.614192500000001;40;MUSEUM;PERU 529; ;10666/05;1952;C;INSCRIPCION VENCIDA;43;22/03/2005;36;27/03/2009; ; ;80;13/07/2005; ; ; ; ; ; 
-58.45001609999999;-34.588747900000001;116;NEO CLUB;DUMONT, SANTOS 4060; ;1544367/09;500;C;INSCRIPCION VENCIDA;10;29/01/2010;11;24/02/2012; ; ;10;29/01/2010;15/02/2013;28/03/2013;INSCRIPCION VENCIDA; ; ; 
-58.42323869999999;-34.579653299999997;24;NEW METROPOLIS;SANTA FE AV. 4389; ;10628/05;1602;C;BAJA INSC: DISP. 77/2008 CONJUNTA;27;11/03/2005; ; ;61;07/04/2006;145;17/10/2005; ; ; ; ; ; 
-58.39277570000000;-34.589097899999999;33;NEW PORT;JUNIN 1715; ;10566/05;295;CC;BAJA INSCRPICION:DISFC-2015-55-DGFYC;36;17/03/2005;42;01/04/2015; ; ;54;23/03/2006; ; ; ; ; ; 
-58.43872979999999;-34.587240999999999;21;NICETO CLUB;VEGA, NICETO, CNEL. AV. 5508; ;10592/05;1118;C;RENOVADO 2017;24;10/03/2005;28;08/03/2017; ; ;58;06/05/2005;15/09/2017;06/12/2017; ; ; ; 
-58.37836066999999;-34.609403309999998;152;NIX PREVIUS;YRIGOYEN, HIPOLITO 847; ;63116/12;342;C;INSCRIPCION 2016;113;25/11/2016; ; ; ; ;113;25/11/2016;06/09/2017;03/12/2017; ; ; ; 
-58.37614409999999;-34.604600099999999;112;NON SERVIAM;SARMIENTO 667; ;1927/09;1100;C;INSCRIPCION VENCIDA;104;12/11/2009;129;11/11/2011; ; ;104;12/11/2009;16/11/2011;15/02/2012; ; ; ; 
-58.435741;-34.553319999999999;153;OLIVIA´S;FIGUEROA ALCORTA, PRES. AV. 6438; ;10727777/17;562;C;INSCRIPCION 2017;57;06/06/2017; ; ; ; ;57;06/06/2017;16/08/2017;03/09/2017; ; ; ; 
-58.49994980000000;-34.598600699999999;132;ONE MORE CLUB;BEIRO, FRANCISCO AV. 3334; ;207312/12;480;C;RENOVADO 2017;12;24/02/2012;23;07/03/2017; ; ;12;24/02/2012;13/09/2017;10/11/2017; ; ; ; 
-58.36574459999999;-34.598277000000003;28;OPERA BAY;GRIERSON, CECILIA 225; ;10674/05;1239;CC;BAJA INSC: DISP. 44/2008 CONJUNTA;31;15/03/2005;48;30/03/2007; ; ;32;17/03/2006; ; ; ; ; ; 
-58.43653849999999;-34.586396499999999;128;OPIUM GARDEN;JUSTO, JUAN B. AV. 1675; ;1653447/11;626; ;BAJA DE INSCRIPCION;111;07/10/2011;154;10/10/2013; ; ;111;07/10/2011; ; ; ; ; ; 
-58.38940219999999;-34.604909300000003;131;OYE CHICO;MONTEVIDEO 310; ;2204807/11;200;CC;RENOVADO 2016;146;22/12/2011;116;21/12/2016; ; ;146;22/12/2011;28/09/2017;13/10/2017; ; ; ; 
-58.42894960000000;-34.551011199999998;65;PACHA / PACHA BS AS;COST Y PAMPA/AV.OBLIGADO 6151; ;30712/05 -;1942;C;BAJA INSCRPICION: DISFC-2015-80-DGFYC;91;29/07/2005;97;20/08/2014; ; ;105;20/08/2010; ; ; ; ; ; 
-58.394638;-34.588374999999999;50;PAGANA;LOPEZ, VICENTE 2134; ;13361/05;364;CC;INSCRIPCION VENCIDA;53;21/04/2005;76;30/05/2014; ; ;66;21/04/2006;15/05/2015;17/08/2015;INSCRIPCION VENCIDA; ; ; 
-58.37967580000000;-34.610690599999998;20;PALACIO ALSINA;ALSINA, ADOLFO 934; ;10575/05;2140;C;RENOVADO 2017;23;10/03/2005;9;02/02/2017; ; ;9;02/02/2017;11/09/2017;03/12/2017; ; ; ; 
-58.42146309999999;-34.582367099999999;26;PALERMO CLUB;BORGES, JORGE LUIS 2450; ;10619/05;650;C;RENOVADO 2017;29;14/03/2005;35;16/03/2017; ; ;121;18/08/2005;08/08/2017;07/11/2017; ; ; ; 
-58.42748910000000;-34.624152799999997;57;PHUKET;LA PLATA AV. 735; ;20810/05;1593;CC;RENOVADO 2017;67;08/06/2005;59;09/06/2017; ; ;67;08/06/2005;21/07/2017;20/10/2017; ; ; ; 
-58.39238660000000;-34.588432099999999;71;PISO 1;JUNIN 1787; ;76735/05;150;CC;BAJA INSCRIPCION DISP. NRO 05/10;45;23/03/2006; ; ; ; ;45;23/03/2006; ; ; ; ; ; 
-58.42970590000000;-34.550510699999997;125;PIZZA BANANA;OBLIGADO RAFAEL, AV.COSTANERA 6201; ;736109/11;1143;C;INSCRIPCION VENCIDA;68;20/05/2011;59;29/05/2015; ; ;68;20/05/2011; ; ; ; ; ; 
-58.40513870000000;-34.608752600000003;51;POPULARISIMO;MITRE, BARTOLOME 2737; ;10662/05;200;C;BAJA DE INSCRIPCION;4;14/02/2007;71;05/05/2006; ; ;71;05/05/2006; ; ; ; ; ; 
-58.37073310000000;-34.614363500000003;82;POR VOS BS AS;BALCARCE 563;PLANTA BAJA;38142/06;586;C;BAJA INSC: DISP. NRO 002/2010;122;02/11/2006;98;12/11/2008; ; ;83;29/08/2008; ; ; ; ; ; 
-58.4264741;-34.592027799999997;94;PORTO SOHO;SCALABRINI ORTIZ, RAUL AV. 1425; ;64702/07;604;C;RENOVADO 2016;96;16/11/2007;108;14/11/2016; ; ;134;18/11/2011;28/04/2017;30/09/2017; ; ; ; 
-58.40945560000000;-34.569008799999999;136;POUND;SARMIENTO AV. Y CASARES AV.; ;1670344/12;894;C;INSCRIPCION VENCIDA;142;07/11/2012;131;05/12/2014; ; ;142;07/11/2012;27/04/2015;03/06/2015;INSCRIPCION VENCIDA; ; ; 
-58.39800950000000;-34.570536300000001;97;PRIVILEGE BA;OBLIGADO RAFAEL, AV.COSTANERA 1221; ;47762/07;2966;C;INSCRIPCION VENCIDA;526;27/02/2008;129;05/12/2014; ; ;526;20/02/2008; ; ; ; ; ; 
-58.38309019999999;-34.629107900000001;60;RADIO STUDIO;O'BRIEN 1232; ;20814/05;3050;C;RENOVADO 2016;72;13/06/2005;97;14/10/2016; ; ;104;27/11/2008;24/07/2017;20/08/2017; ; ; ; 
-58.37981950000000;-34.609023999999998;63;REQUIEM GOTIC;DE MAYO AV. 948; ;24460/05;186;CC;INSCRIPCION VENCIDA;85;19/07/2005;90;10/07/2006; ; ;19;06/03/2006; ; ; ; ; ; 
-58.47475579999999;-34.632230999999997;35;RETRO;RIVADAVIA AV. 7806; ;10667/05;1872;C;RENOVADO 2017;38;18/03/2005;38;17/03/2007; ; ;144/150;05/10/2005;15/09/2017;15/12/2017; ; ; ; 
-58.3747191;-34.612002599999997;3;REY CASTRO;PERU 342; ;11115/05;901;C;RENOVADO 2017;4;01/03/2005;18;22/02/2017; ; ;67;24/04/2006;01/09/2017;03/12/2017; ; ; ; 
-58.4927341;-34.636327700000002;124;RIVADAVIA 9131;RIVADAVIA AV. 9131; ;316734/11;120;CC;SUSPENDIDO;63;13/05/2011;70;18/05/2012; ; ;63;13/05/2011;17/07/2012;11/10/2012;SUSPENDIDO; ; ; 
-58.42452474000000;-34.590511929999998;134;ROOM;SCALABRINI ORTIZ, RAUL AV. 1648; ;540934/12;784;C;RENOVADO 2017;96;06/07/2012;65;29/06/2017; ; ;96;06/07/2012;06/07/2017;30/09/2017; ; ; ; 
-58.39801332999999;-34.570535049999997;156;ROSE IN RIO;OBLIGADO RAFAEL, AV.COSTANERA 1221; ;19176186/17;1013;C;INSCRIPCION 2017;81;25/08/2017; ; ; ; ;81;25/08/2017;25/08/2017;27/10/2017; ; ; ; 
-58.43450760000000;-34.585566800000002;130;ROSEBAR;HONDURAS 5445; ;2040335/11;1370;C;RENOVADO 2016;139;29/11/2011;112;24/11/2016; ; ;139;29/11/2011;29/09/2017;30/12/2017; ; ; ; 
-58.39609543000000;-34.58890237;80;RUANO;AZCUENAGA 1775;1ER PISO;31389/06;254;CC;RENOVADO 2016;100;11/08/2006;95;07/10/2016; ; ;100;11/08/2006;31/08/2017;17/11/2017; ; ; ; 
-58.43548160000000;-34.553100499999999;18;RUMI;FIGUEROA ALCORTA, PRES. AV. 6442; ;10834/05;765;CC;BAJA INSC: DISP. 40/13;21;10/03/2005;31;09/03/2012; ; ;149;02/11/2005; ; ; ; ; ; 
-58.39266899999999;-34.588915399999998;32;SAHARA;JUNIN 1735; ;10658/05;870;C;BAJA INSC: DISP. CONJUNTA NRO 74/11;35;17/03/2005;43;19/03/2010; ; ;46;23/03/2006; ; ; ; ; ; 
-58.38605739999999;-34.605279500000002;47;SALON AGUSTEO;SARMIENTO 1374; ;10587/05; ;ART 1;BAJA INSC: DISP. NRO 30/DGHP/2008;50;23/03/2005; ; ; ; ; ; ; ; ; ; ; ; 
-58.4162599;-34.644774900000002;86;SALON ROCK SUR;SAENZ AV. 459; ;83809/06;2346;C;RENOVADO 2017;5;23/02/2007;13;16/02/2017; ; ;90;23/10/2008;20/07/2017;20/10/2017; ; ; ; 
-58.45703369999999;-34.6263559;87;SEU DISCO;BOYACA AV. 28; ;72,693/05;186;CC;RENOVADO 2017;34;16/03/2007;36;16/03/2017; ; ;34;16/03/2007;27/07/2017;27/10/2017; ; ; ; 
-58.42507479999999;-34.596878699999998;148;SITGES;CORDOBA AV. 4119; ;361027/14;203;CC;RENOVADO 2017;33;15/03/2016;34;16/03/2017; ; ;33;15/03/2016;10/04/2017;10/05/2017; ; ; ; 
-58.39552659999999;-34.587416500000003;42;SODOMA;LOPEZ, VICENTE 2233; ;10671/05;300;CC;SUSPENDIDO DISP. NRO 26/DGHP/08;45;22/03/2005;1;18/01/2007; ; ;1;18/01/2007; ; ; ; ; ; 
-58.39146509999999;-34.605627900000002;13;SUDACA;SARMIENTO 1752; ;10622/05;980;C;RENOVADO 2017;18;07/03/2005;29;08/03/2017; ; ;134;05/08/2013;12/07/2017;13/10/2017; ; ; ; 
-58.47227689999999;-34.631800200000001;27;TABASCO PUB;MARTI, JOSE 17; ;10585/05;999;C;RENOVADO 2017;30;15/03/2005;27;08/03/2017; ; ;108;27/08/2010;15/09/2017;15/12/2017; ; ; ; 
-58.450837;-34.580135400000003;49;TEATRO VORTERIX;LACROZE, FEDERICO AV. 3453; ;10621/05;1584;CC;RENOVADO 2017;52;01/04/2005;47;31/03/2017; ; ;7;04/01/2006;28/09/2017;28/12/2017; ; ; ; 
-58.42975959999999;-34.550470199999999;110;TEQUILA;OBLIGADO RAFAEL, AV.COSTANERA 6211; ;49401/09;335;C;RENOVADO 2017;94;16/10/2009;85;08/09/2017; ; ;118;15/10/2010;27/06/2017;22/09/2017; ; ; ; 
-58.40193680000000;-34.5679187;120;TERRAZAS DEL ESTE;OBLIGADO RAFAEL, AV.COSTANERA Y SARMIENTO AV.; ;1602841/10;3095;C;RENOVADO 2016;10;10/02/2011;118;27/12/2016; ; ;118;27/12/2016;01/09/2017;24/11/2017; ; ; ; 
-58.41185829999999;-34.604652299999998;67;THE FLOWER;AGUERO 445; ;46266/05;405;C;RENOVADO 2016;156;18/11/2005;103;20/10/2016; ; ;156;18/11/2005;03/08/2017;27/10/2017; ; ; ; 
-58.3921347;-34.594625399999998;54;THE SHAMROCK;RODRIGUEZ PEÑA 1220; ;10556/05;396;CC;RENOVADO 2017;64;18/05/2005;52;04/05/2017; ; ;63;12/05/2006;27/07/2017;21/10/2017; ; ; ; 
-58.37492759999999;-34.598616499999999;101;THE SUB;CORDOBA AV. 543; ;40833/08;415;CC;RENOVADO 2016;100;14/11/2008;110;17/11/2016; ; ;100;14/11/2008;14/07/2017;13/10/2017; ; ; ; 
-58.39514760000000;-34.588014800000003;25;TIRO LOCO;LOPEZ, VICENTE 2188; ;11118/05;177;CC;BAJA INSC:DISP. CONJUNTA NRO 007/2010;28;14/03/2005;38;17/03/2006; ; ;38;17/03/2006; ; ; ; ; ; 
-58.45394060000000;-34.552258999999999;139;UGARTE;UGARTE, MANUEL 1640; ;832758/10;992;C;RENOVADO 2017;82;10/05/2013;56;19/05/2017; ; ;149;23/09/2013;11/08/2017;11/11/2017; ; ; ; 
-58.41222760000000;-34.602713100000003;81;UNI CLUB;GUARDIA VIEJA 3360; ;30099/06;630;C;RENOVADO 2017;101;11/08/2006;74;04/08/2017; ; ;97;16/11/2007;25/07/2017;27/10/2017; ; ; ; 
-58.43825780000000;-34.564971499999999;31;VELVET FRERE;OLLEROS AV. 1775; ;10668/05;650;C;RENOVADO 2017;34;16/03/2005;17;22/02/2017; ; ;19;04/03/2009;13/09/2017;15/12/2017; ; ; ; 
-58.43495310000000;-34.608824499999997;129;VIEJO CORREO;DIAZ VELEZ AV. 4820; ;37589/09;300;C;INSCRIPCION VENCIDA;119;04/11/2011;133;18/12/2015; ; ;119;04/11/2011;22/03/2016;22/06/2016;INSCRIPCION VENCIDA; ; ; 
-58.44821319999999;-34.556946500000002;96;VIPER;JURAMENTO 1543; ;81882/07;238;CC;RENOVADO 2017;104;21/12/2007;53;04/05/2017; ; ;104;21/12/2007;31/07/2017;15/09/2017; ; ; ; 
-58.43401099999999;-34.5860281;146;VITA;HONDURAS 5450; ;29349757/15;756;C;RENOVADO 2016;103;29/10/2015;102;20/10/2016; ; ;103;29/10/2015;04/07/2017;30/09/2017; ; ; ; 
-58.38003880000000;-34.609591000000002;99;VOX;YRIGOYEN, HIPOLITO 968; ;48523/08;532;C;RENOVADO 2017;94;07/11/2008;24;07/03/2017; ; ;94;07/11/2008;01/09/2017;03/12/2017; ; ; ; 
-58.43564599999999;-34.586685199999998;123;WANNA;DARWIN 1574 / AV. J. B. JUSTO 1634; ;519875/11;539;C;RENOVADO 2017;59;28/04/2011;54;10/05/2017; ; ;31;10/03/2017;29/09/2017;28/12/2017; ; ; ; 
-58.44843439999999;-34.546924799999999;16;WESTERN;FIGUEROA ALCORTA, PRES. AV. 7536; ;10602/05;320;C;RENOVADO 2017;17;03/03/2005;41;21/03/2017; ; ;89;06/07/2006;30/08/2017;11/11/2017; ; ; ; 
-58.4388565;-34.587152699999997;109;WET CLUB;VEGA, NICETO, CNEL. AV. 5534; ;48222/09;272;CC; INSCRIPCION VENCIDA;87;28/08/2009;116;20/10/2011; ; ;87;28/08/2009;10/09/2014;06/09/2014;INSCRIPCION VENCIDA; ; ; 
-58.36432750000000;-34.601027299999998;126;WHO;DE LA BARRA,  EMMA 333; ;990186/11;490;C;INSCRIPCION VENCIDA;89;22/07/2011; ; ; ; ;89;22/07/2011; ;05/11/2012;INSCRIPCION VENCIDA; ; ; 
-58.50792650000000;-34.592908000000001;11;XEL - HA;SAN MARTIN AV. 6628; ;10614/05;692;C;RENOVADO 2017;12;03/03/2005;37;16/03/2017; ; ;70;10/06/2005;17/08/2017;17/11/2017; ; ; ; 
-58.37961889999999;-34.601523499999999;122;YOUR CLUB;SUIPACHA 586; ;254976/11;520;C;RENOVADO 2017;43;23/03/2011;42;23/03/2017; ; ;43;23/03/2011;25/09/2017;30/10/2017; ; ; ; 
